OBJECT_NAME,OBJECT_ID,EPOCH,MEAN_MOTION,ECCENTRICITY,INCLINATION,RA_OF_ASC_NODE,ARG_OF_PERICENTER,MEAN_ANOMALY,EPHEMERIS_TYPE,CLASSIFICATION_TYPE,NORAD_CAT_ID,ELEMENT_SET_NO,REV_AT_EPOCH,BSTAR,MEAN_MOTION_DOT,MEAN_MOTION_DDOT
SAUDISAT 1C (SO-50),2002-058C,2026-06-12T07:12:13.344480,14.83036938,.00753718,64.5507,144.1057,263.3766,95.8757,0,U,27607,999,26373,.13385224E-3,.989E-5,0
SAUDISAT 2,2004-025F,2026-06-12T06:56:44.237760,14.56681326,.00237894,98.5507,163.1447,313.9595,45.9639,0,U,28371,999,16503,.69889094E-4,.263E-5,0
SAUDISAT 3,2007-012B,2026-06-12T07:04:06.866688,14.71423013,.00134117,98.1454,113.6919,240.6918,119.2949,0,U,31118,999,2702,.4707786E-4,.241E-5,0
PISAT,2016-059B,2026-06-12T05:45:07.820640,14.68975851,.00280013,97.8179,163.9051,219.0521,140.8664,0,U,41784,999,51901,.15687719E-3,.877E-5,0
FLYING LAPTOP,2017-042G,2026-06-12T07:40:01.847712,15.01113866,.00193262,97.4663,319.0404,137.4850,222.7875,0,U,42831,999,48572,.25010081E-3,.3157E-4,0
SALSAT,2020-068K,2026-06-12T05:45:09.268704,15.29730151,.0008469,97.8848,166.0033,328.8216,31.2520,0,U,46495,999,31460,.28201772E-3,.8047E-4,0
